STARLINK-31966          
1 59944U 24106Y   26068.11817874 -.00003591  00000+0 -12114-3 0  9994
2 59944  43.0015 335.8992 0000329 185.6983 174.3865 15.27555294100481
KUIPER-00266            
1 67789U 26030AB  26067.91293632  .00029701  00000+0  98220-3 0  9996
2 67789  51.8807 223.5904 0022313  72.5291 287.8129 15.30874235  4964
